[{"idElset":"736207e0-9150-4aee-9eac-04cde7d144df","classificationMarking":"U","satNo":48340,"epoch":"2025-04-29T04:54:53.295264Z","meanMotion":13.45425661,"idOnOrbit":"48340","eccentricity":0.0086588,"inclination":63.4008,"raan":129.7209,"argOfPerigee":357.7175,"meanAnomaly":2.3444,"revNo":19639,"bStar":4.8192E-5,"meanMotionDot":-6.1E-7,"meanMotionDDot":0.0,"semiMajorAxis":7467.273,"period":107.029,"apogee":7531.9310000000005,"perigee":7402.616,"line1":"1 48340U 21037A   25119.20478351 -.00000061 +00000+0 +48192-4 0 99994","line2":"2 48340  63.4008 129.7209 0086588 357.7175   2.3444 13.45425661196394","createdAt":"2025-04-29T07:08:09.114Z","createdBy":"system.ob-ingest","source":"18th SPCS","dataMode":"REAL","algorithm":"SGP4","origNetwork":"OPS1"}]